OBJECT_NAME,OBJECT_ID,EPOCH,MEAN_MOTION,ECCENTRICITY,INCLINATION,RA_OF_ASC_NODE,ARG_OF_PERICENTER,MEAN_ANOMALY,EPHEMERIS_TYPE,CLASSIFICATION_TYPE,NORAD_CAT_ID,ELEMENT_SET_NO,REV_AT_EPOCH,BSTAR,MEAN_MOTION_DOT,MEAN_MOTION_DDOT
STARLINK-37031,2026-050F,2026-07-18T14:15:33.423840,15.34390481,.00012313,53.1589,16.6999,96.9397,263.1746,0,U,68172,999,2075,.14392796E-3,.4488E-4,0
STARLINK-37076,2026-050G,2026-07-18T05:01:52.285152,15.34396107,.00014894,53.1606,18.5581,89.0871,271.0302,0,U,68173,999,2069,.12528179E-3,.3858E-4,0
STARLINK-37078,2026-050H,2026-07-18T11:04:56.189280,15.34412390,.000322,53.1572,17.2859,86.2570,273.8801,0,U,68174,999,2073,.42532266E-3,.14027E-3,0
STARLINK-36886,2026-050J,2026-07-18T11:47:13.530048,15.34396739,.00012788,53.1595,16.7586,79.0287,281.0860,0,U,68175,999,2074,.34087346E-3,.11157E-3,0
STARLINK-36905,2026-050K,2026-07-18T12:35:42.058176,15.34402143,.00021087,53.1588,16.9672,89.6359,270.4885,0,U,68176,999,2074,.29234687E-3,.9514E-4,0
STARLINK-36668,2026-050L,2026-07-18T11:56:18.250080,15.34417029,.00011571,53.1603,16.8200,64.3939,295.7183,0,U,68177,999,2074,.48738238E-3,.16135E-3,0
STARLINK-36677,2026-050M,2026-07-18T12:11:27.662784,15.34395965,.00009143,53.1594,16.8581,55.4361,304.6728,0,U,68178,999,2074,.37473777E-3,.12304E-3,0
STARLINK-37052,2026-050N,2026-07-17T21:49:07.241376,15.34397483,.0001192,53.1596,19.5359,76.8310,283.2825,0,U,68179,999,2065,.33858786E-3,.1108E-3,0
STARLINK-37035,2026-050P,2026-07-17T22:01:14.541024,15.34388351,.00011596,53.1599,19.5851,93.5401,266.5734,0,U,68180,999,2065,.46942872E-3,.15511E-3,0
STARLINK-37032,2026-050Q,2026-07-18T12:29:38.806656,15.34416337,.00015621,53.1607,16.9536,97.4865,262.6315,0,U,68181,999,2074,.25165346E-3,.814E-4,0
STARLINK-37082,2026-050R,2026-07-18T12:32:40.089408,15.34391040,.00012158,53.1594,16.9661,102.8673,257.2465,0,U,68182,999,2074,.30040066E-3,.9784E-4,0
STARLINK-37102,2026-050S,2026-07-18T12:02:22.643808,15.34396363,.00014335,53.1574,16.8341,86.0754,274.0412,0,U,68183,999,2074,.47770981E-3,.15796E-3,0
STARLINK-36964,2026-050T,2026-07-17T19:11:49.525728,15.34398067,.00009859,53.1606,20.2713,90.1403,269.9713,0,U,68184,999,2063,.29245363E-3,.9517E-4,0
STARLINK-37061,2026-050U,2026-07-18T11:29:02.635008,15.34398660,.00014229,53.1595,16.6848,84.5263,275.5902,0,U,68185,999,2074,.3442454E-3,.11272E-3,0
STARLINK-37079,2026-050V,2026-07-18T11:44:12.035616,15.34410164,.00019487,53.1607,16.7661,81.8291,278.2932,0,U,68186,999,2074,.39846304E-3,.13114E-3,0
STARLINK-37006,2026-050W,2026-07-17T21:09:51.368256,15.34373372,.00011635,53.1597,20.0662,98.8042,261.3093,0,U,68187,999,2064,.59206638E-3,.19663E-3,0
STARLINK-36305,2026-050Y,2026-07-17T21:18:57.004128,15.34399983,.00011114,53.1608,20.1081,90.5536,269.5594,0,U,68189,999,2054,.44944558E-3,.14839E-3,0
STARLINK-37071,2026-050Z,2026-07-18T14:27:40.472928,15.34392662,.00012802,53.1593,16.7396,94.3010,265.8139,0,U,68190,999,2075,.16965017E-3,.5358E-4,0
STARLINK-37091,2026-050AA,2026-07-17T20:42:35.312544,15.34402627,.0001012,53.1580,19.9415,95.0790,265.0328,0,U,68191,999,2064,.31165811E-3,.10169E-3,0
STARLINK-37098,2026-050AB,2026-07-18T12:08:26.090592,15.34397621,.00012132,53.1590,16.8450,77.2352,282.8786,0,U,68192,999,2074,.20675919E-3,.6615E-4,0
STARLINK-37090,2026-050AC,2026-07-18T12:26:36.170880,15.34376532,.00010608,53.1584,16.9282,87.0305,273.0819,0,U,68193,999,2074,.16876271E-3,.5326E-4,0
STARLINK-37093,2026-050AD,2026-07-17T22:10:19.570368,15.34401925,.00008378,53.1592,19.6150,72.2191,287.8903,0,U,68194,999,2065,.36739528E-3,.12058E-3,0
STARLINK-37058,2026-050AE,2026-07-18T05:25:58.865664,15.34398110,.00013523,53.1593,17.9465,83.1547,276.9610,0,U,68195,999,1914,.21651423E-3,.6945E-4,0
YAOGAN-50 02,2026-051A,2026-07-13T13:38:09.854304,13.83256148,.0000957,141.9892,95.0065,265.2350,94.8261,0,U,68196,999,1664,.66659E-4,.26E-5,0
2026-052A,2026-052A,2026-07-18T14:54:13.921344,15.11260881,.00133669,97.5318,273.9215,192.7637,167.3256,0,U,68198,999,1879,.21248826E-3,.3516E-4,0
2026-052C,2026-052C,2026-07-18T14:51:36.821088,15.10957741,.00016093,97.5314,273.9176,90.5888,269.5526,0,U,68200,999,1878,.13555397E-3,.2197E-4,0
2026-052D,2026-052D,2026-07-18T04:26:02.897664,15.11710872,.0011041,97.5331,273.5794,194.4270,165.6647,0,U,68201,999,1873,.14975501E-3,.2489E-4,0
2026-052E,2026-052E,2026-07-18T15:34:21.268128,15.11703551,.00108441,97.5301,274.0444,197.7236,162.3617,0,U,68202,999,1880,.15838508E-3,.2635E-4,0
2026-052F,2026-052F,2026-07-18T03:55:31.591776,15.11983270,.00103741,97.5313,273.6049,192.1120,167.9862,0,U,68203,999,1873,.19705181E-3,.332E-4,0
