STARLINK-37031          
1 68172U 26050F   26199.59413685  .00004488  00000+0  14393-3 0  9991
2 68172  53.1589  16.6999 0001231  96.9397 263.1746 15.34390481 20758
STARLINK-37076          
1 68173U 26050G   26199.20963293  .00003858  00000+0  12528-3 0  9993
2 68173  53.1606  18.5581 0001489  89.0871 271.0302 15.34396107 20692
STARLINK-37078          
1 68174U 26050H   26199.46176145  .00014027  00000+0  42532-3 0  9992
2 68174  53.1572  17.2859 0003220  86.2570 273.8801 15.34412390 20731
STARLINK-36886          
1 68175U 26050J   26199.49112882  .00011157  00000+0  34087-3 0  9991
2 68175  53.1595  16.7586 0001278  79.0287 281.0860 15.34396739 20749
STARLINK-36905          
1 68176U 26050K   26199.52479234  .00009514  00000+0  29235-3 0  9996
2 68176  53.1588  16.9672 0002108  89.6359 270.4885 15.34402143 20746
STARLINK-36668          
1 68177U 26050L   26199.49743345  .00016135  00000+0  48738-3 0  9996
2 68177  53.1603  16.8200 0001157  64.3939 295.7183 15.34417029 20748
STARLINK-36677          
1 68178U 26050M   26199.50795906  .00012304  00000+0  37474-3 0  9998
2 68178  53.1594  16.8581 0000914  55.4361 304.6728 15.34395965 20749
STARLINK-37052          
1 68179U 26050N   26198.90911159  .00011080  00000+0  33859-3 0  9995
2 68179  53.1596  19.5359 0001192  76.8310 283.2825 15.34397483 20652
STARLINK-37035          
1 68180U 26050P   26198.91752941  .00015511  00000+0  46943-3 0  9991
2 68180  53.1599  19.5851 0001159  93.5401 266.5734 15.34388351 20651
STARLINK-37032          
1 68181U 26050Q   26199.52058804  .00008140  00000+0  25165-3 0  9990
2 68181  53.1607  16.9536 0001562  97.4865 262.6315 15.34416337 20746
STARLINK-37082          
1 68182U 26050R   26199.52268622  .00009784  00000+0  30040-3 0  9995
2 68182  53.1594  16.9661 0001215 102.8673 257.2465 15.34391040 20743
STARLINK-37102          
1 68183U 26050S   26199.50165097  .00015796  00000+0  47771-3 0  9995
2 68183  53.1574  16.8341 0001433  86.0754 274.0412 15.34396363 20743
STARLINK-36964          
1 68184U 26050T   26198.79987877  .00009517  00000+0  29245-3 0  9994
2 68184  53.1606  20.2713 0000985  90.1403 269.9713 15.34398067 20638
STARLINK-37061          
1 68185U 26050U   26199.47850272  .00011272  00000+0  34425-3 0  9996
2 68185  53.1595  16.6848 0001422  84.5263 275.5902 15.34398660 20746
STARLINK-37079          
1 68186U 26050V   26199.48902819  .00013114  00000+0  39846-3 0  9992
2 68186  53.1607  16.7661 0001948  81.8291 278.2932 15.34410164 20746
STARLINK-37006          
1 68187U 26050W   26198.88184454  .00019663  00000+0  59207-3 0  9991
2 68187  53.1597  20.0662 0001163  98.8042 261.3093 15.34373372 20644
STARLINK-36305          
1 68189U 26050Y   26198.88815977  .00014839  00000+0  44945-3 0  9997
2 68189  53.1608  20.1081 0001111  90.5536 269.5594 15.34399983 20546
STARLINK-37071          
1 68190U 26050Z   26199.60255177  .00005358  00000+0  16965-3 0  9997
2 68190  53.1593  16.7396 0001280  94.3010 265.8139 15.34392662 20751
STARLINK-37091          
1 68191U 26050AA  26198.86290871  .00010169  00000+0  31166-3 0  9991
2 68191  53.1580  19.9415 0001012  95.0790 265.0328 15.34402627 20644
STARLINK-37098          
1 68192U 26050AB  26199.50585753  .00006615  00000+0  20676-3 0  9995
2 68192  53.1590  16.8450 0001213  77.2352 282.8786 15.34397621 20743
STARLINK-37090          
1 68193U 26050AC  26199.51847420  .00005326  00000+0  16876-3 0  9994
2 68193  53.1584  16.9282 0001060  87.0305 273.0819 15.34376532 20745
STARLINK-37093          
1 68194U 26050AD  26198.92383762  .00012058  00000+0  36740-3 0  9995
2 68194  53.1592  19.6150 0000837  72.2191 287.8903 15.34401925 20651
STARLINK-37058          
1 68195U 26050AE  26199.22637576  .00006945  00000+0  21651-3 0  9998
2 68195  53.1593  17.9465 0001352  83.1547 276.9610 15.34398110 19149
YAOGAN-50 02            
1 68196U 26051A   26194.56816961  .00000260  00000+0  66659-4 0  9991
2 68196 141.9892  95.0065 0000957 265.2350  94.8261 13.83256148 16643
2026-052A               
1 68198U 26052A   26199.62099446  .00003516  00000+0  21249-3 0  9999
2 68198  97.5318 273.9215 0013366 192.7637 167.3256 15.11260881 18798
2026-052C               
1 68200U 26052C   26199.61917617  .00002197  00000+0  13555-3 0  9996
2 68200  97.5314 273.9176 0001609  90.5888 269.5526 15.10957741 18785
2026-052D               
1 68201U 26052D   26199.18475576  .00002489  00000+0  14976-3 0  9994
2 68201  97.5331 273.5794 0011041 194.4270 165.6647 15.11710872 18735
2026-052E               
1 68202U 26052E   26199.64885727  .00002635  00000+0  15839-3 0  9991
2 68202  97.5301 274.0444 0010844 197.7236 162.3617 15.11703551 18804
2026-052F               
1 68203U 26052F   26199.16356009  .00003320  00000+0  19705-3 0  9993
2 68203  97.5313 273.6049 0010374 192.1120 167.9862 15.11983270 18736
